[{"OBJECT_NAME":"STARLINK-3965","OBJECT_ID":"2022-051T","EPOCH":"2026-03-09T09:37:24.126816","MEAN_MOTION":15.08843557,"ECCENTRICITY":0.00013582,"INCLINATION":53.2166,"RA_OF_ASC_NODE":130.4161,"ARG_OF_PERICENTER":87.1674,"MEAN_ANOMALY":272.9474,"EPHEMERIS_TYPE":0,"CLASSIFICATION_TYPE":"U","NORAD_CAT_ID":52550,"ELEMENT_SET_NO":999,"REV_AT_EPOCH":21140,"BSTAR":0.00026322696,"MEAN_MOTION_DOT":3.904e-5,"MEAN_MOTION_DDOT":0},{"OBJECT_NAME":"DISKSAT B","OBJECT_ID":"2025-305B","EPOCH":"2026-03-09T19:33:34.074144","MEAN_MOTION":15.07484556,"ECCENTRICITY":0.00037827,"INCLINATION":45.0018,"RA_OF_ASC_NODE":250.2098,"ARG_OF_PERICENTER":311.4052,"MEAN_ANOMALY":48.6498,"EPHEMERIS_TYPE":0,"CLASSIFICATION_TYPE":"U","NORAD_CAT_ID":67220,"ELEMENT_SET_NO":999,"REV_AT_EPOCH":1231,"BSTAR":0.00082400752,"MEAN_MOTION_DOT":0.00012481,"MEAN_MOTION_DDOT":0}]
