STARLINK-3965           
1 52550U 22051T   26068.40097369  .00003904  00000+0  26323-3 0  9991
2 52550  53.2166 130.4161 0001358  87.1674 272.9474 15.08843557211407
DISKSAT B               
1 67220U 25305B   26068.81497770  .00012481  00000+0  82401-3 0  9990
2 67220  45.0018 250.2098 0003783 311.4052  48.6498 15.07484556 12311
